{
    "links": {
        "self": "http://www.neowsapp.com/rest/v1/neo/3612647?api_key=iIulBulltgU6a56xZRHN4H3l9WmuAYTsLGpBGhQ2"
    },
    "id": "3612647",
    "neo_reference_id": "3612647",
    "name": "(2012 UT18)",
    "designation": "2012 UT18",
    "nasa_jpl_url": "http://ssd.jpl.nasa.gov/sbdb.cgi?sstr=3612647",
    "absolute_magnitude_h": 24.3,
    "estimated_diameter": {
        "kilometers": {
            "estimated_diameter_min": 0.0366906138,
            "estimated_diameter_max": 0.0820427065
        },
        "meters": {
            "estimated_diameter_min": 36.6906137531,
            "estimated_diameter_max": 82.0427064882
        },
        "miles": {
            "estimated_diameter_min": 0.0227984834,
            "estimated_diameter_max": 0.0509789586
        },
        "feet": {
            "estimated_diameter_min": 120.3760332259,
            "estimated_diameter_max": 269.1689931548
        }
    },
    "is_potentially_hazardous_asteroid": false,
    "close_approach_data": [
        {
            "close_approach_date": "2012-10-02",
            "close_approach_date_full": "2012-Oct-02 11:10",
            "epoch_date_close_approach": 1349176200000,
            "relative_velocity": {
                "kilometers_per_second": "11.140387408",
                "kilometers_per_hour": "40105.3946687316",
                "miles_per_hour": "24919.9325929127"
            },
            "miss_distance": {
                "astronomical": "0.0634047607",
                "lunar": "24.6644519123",
                "kilometers": "9485217.148579709",
                "miles": "5893840.6351056242"
            },
            "orbiting_body": "Earth"
        }
    ],
    "orbital_data": {
        "orbit_id": "4",
        "orbit_determination_date": "2017-04-06 08:48:26",
        "first_observation_date": "2012-10-18",
        "last_observation_date": "2012-10-19",
        "data_arc_in_days": 1,
        "observations_used": 20,
        "orbit_uncertainty": "9",
        "minimum_orbit_intersection": ".0603598",
        "jupiter_tisserand_invariant": "3.284",
        "epoch_osculation": "2456219.5",
        "eccentricity": ".5981690480680505",
        "semi_major_axis": "2.3478326554344",
        "inclination": "7.196664620196743",
        "ascending_node_longitude": "218.3716781413025",
        "orbital_period": "1314.011406187638",
        "perihelion_distance": ".9434318309101215",
        "perihelion_argument": "116.2717034911067",
        "aphelion_distance": "3.752233479958677",
        "perihelion_time": "2456175.441383595807",
        "mean_anomaly": "12.07074902913327",
        "mean_motion": ".2739702245389738",
        "equinox": "J2000",
        "orbit_class": {
            "orbit_class_type": "APO",
            "orbit_class_description": "Near-Earth asteroid orbits which cross the Earth’s orbit similar to that of 1862 Apollo",
            "orbit_class_range": "a (semi-major axis) > 1.0 AU; q (perihelion) < 1.017 AU"
        }
    },
    "is_sentry_object": false
}